*******************************************************************************
Ephemeris / PORT_LOGIN Sat Mar 13 14:56:31 2021 Pasadena, USA    / Horizons
*******************************************************************************
Target body name: Mercury (199)                   {source: DE431mx}
Center body name: Earth (399)                     {source: DE431mx}
Center-site name: Greenwich
*******************************************************************************
Start time      : A.D. 2021-Mar-13 00:00:00.0000 TDB
Stop  time      : A.D. 2025-Mar-13 00:00:00.0000 TDB
Step-size       : 1440 minutes
*******************************************************************************
Center geodetic : 0.00000000,51.4773207,0.0670693 {E-lon(deg),Lat(deg),Alt(km)}
Center cylindric: 0.00000000,3980.66470,4966.8438 {E-lon(deg),Dxy(km),Dz(km)}
Center pole/equ : High-precision EOP model        {East-longitude positive}
Center radii    : 6378.1 x 6378.1 x 6356.8 km     {Equator, meridian, pole}    
Output units    : AU-D
Output type     : GEOMETRIC cartesian states
Output format   : 3 (position, velocity, LT, range, range-rate)
EOP file        : eop.210312.p210603
EOP coverage    : DATA-BASED 1962-JAN-20 TO 2021-MAR-12. PREDICTS-> 2021-JUN-02
Reference frame : ICRF
*******************************************************************************
            JDTDB,            Calendar Date (TDB),                      X,                      Y,                      Z,                     VX,                     VY,                     VZ,                     LT,                     RG,                     RR,
**************************************************************************************************************************************************************************************************************************************************************************
$$SOE
2459766.500000000, A.D. 2022-Jul-06 00:00:00.0000, -2.434232372067847E-02,  1.117861470304496E+00,  4.835028077817305E-01, -4.270288371784392E-02,  1.340556019090022E-02,  1.025654169768690E-02,  7.035666597228182E-03,  1.218187908595496E+00,  1.722567857177053E-02,
2459767.500000000, A.D. 2022-Jul-07 00:00:00.0000, -6.783335117602886E-02,  1.130142514366079E+00,  4.932525912565479E-01, -4.456800359418964E-02,  1.104184026753778E-02,  9.221649502510025E-03,  7.132523323604564E-03,  1.234958130905964E+00,  1.623589672652832E-02,
2459768.500000000, A.D. 2022-Jul-08 00:00:00.0000, -1.130762781576036E-01,  1.139963079783199E+00,  5.019026764798995E-01, -4.619878937919720E-02,  8.483233009077905E-03,  8.058714867680037E-03,  7.223343512552776E-03,  1.250683159160807E+00,  1.514312398650875E-02,
2459769.500000000, A.D. 2022-Jul-09 00:00:00.0000, -1.598180902381471E-01,  1.147142052928709E+00,  5.093304387403624E-01, -4.755852644212506E-02,  5.758466754189853E-03,  6.779267240664928E-03,  7.307558205300426E-03,  1.265264481202373E+00,  1.395706562938394E-02,
2459770.500000000, A.D. 2022-Jul-10 00:00:00.0000, -2.077716331746521E-01,  1.151530362176444E+00,  5.154268203889685E-01, -4.861599295983327E-02,  2.902727262122843E-03,  5.398855262430072E-03,  7.384663728845088E-03,  1.278614888753669E+00,  1.269054331800790E-02,
2459771.500000000, A.D. 2022-Jul-11 00:00:00.0000, -2.566220852253015E-01,  1.153016827422393E+00,  5.201001270332879E-01, -4.934736233942711E-02, -4.364825521561889E-05,  3.936546754919685E-03,  7.454238556661319E-03,  1.290661396759283E+00,  1.135905540777678E-02,
2459772.500000000, A.D. 2022-Jul-12 00:00:00.0000, -3.060351241809701E-01,  1.151532453061702E+00,  5.232791683800502E-01, -4.973765406928094E-02, -3.036955568122029E-03,  2.414126374263844E-03,  7.515956918753577E-03,  1.301347599893003E+00,  9.980099311606320E-03,
2459773.500000000, A.D. 2022-Jul-13 00:00:00.0000, -3.556662397375391E-01,  1.147052766616918E+00,  5.249154742575231E-01, -4.978154945364386E-02, -6.032213414577422E-03,  8.550640862582673E-04,  7.569597956412293E-03,  1.310635257654687E+00,  8.572320728602062E-03,
2459774.500000000, A.D. 2022-Jul-14 00:00:00.0000, -4.051705004472345E-01,  1.139598006935067E+00,  5.249844092251715E-01, -4.948347821932212E-02, -8.985334990033770E-03, -7.166358387073048E-04,  7.615049680959030E-03,  1.318504979805742E+00,  7.154582872097049E-03,
2459775.500000000, A.D. 2022-Jul-15 00:00:00.0000, -4.542120440180652E-01,  1.129231197453299E+00,  5.234851284870321E-01, -4.885698978736695E-02, -1.185514960164860E-02, -2.277580438133926E-03,  7.652307570544670E-03,  1.324955983412266E+00,  5.745057965874664E-03,
2459776.500000000, A.D. 2022-Jul-16 00:00:00.0000, -5.024726245279989E-01,  1.116054356476448E+00,  5.204394401484005E-01, -4.792352128046493E-02, -1.460507931785596E-02, -3.806012286383217E-03,  7.681468205961124E-03,  1.330004990919995E+00,  4.360431916504770E-03,
2459777.500000000, A.D. 2022-Jul-17 00:00:00.0000, -5.496586990448373E-01,  1.100203260467827E+00,  5.158897421721080E-01, -4.671074185926298E-02, -1.720434097482374E-02, -5.282624135691274E-03,  7.702718802436800E-03,  1.333684417640884E+00,  3.015287507699823E-03,
2459778.500000000, A.D. 2022-Jul-18 00:00:00.0000, -5.955067334837303E-01,  1.081841268096944E+00,  5.098962722146924E-01, -4.525068210000743E-02, -1.962862001405677E-02, -6.691113404665216E-03,  7.716323783442274E-03,  1.336040047079617E+00,  1.721700589222143E-03,
2459779.500000000, A.D. 2022-Jul-19 00:00:00.0000, -6.397866157335479E-01,  1.061152729726730E+00,  5.025339393992939E-01, -4.357785072713551E-02, -2.186023402095801E-02, -8.018464953465209E-03,  7.722609654016814E-03,  1.337128411831284E+00,  4.890538912080836E-04,
2459780.500000000, A.D. 2022-Jul-20 00:00:00.0000, -6.823032511924120E-01,  1.038336459416597E+00,  4.938890010649457E-01, -4.172750674847071E-02, -2.388786012994797E-02, -9.254984427874154E-03,  7.721949381985640E-03,  1.337014089272981E+00, -6.759521929795092E-04,
2459781.500000000, A.D. 2022-Jul-21 00:00:00.0000, -7.228965590088142E-01,  1.013599653040254E+00,  4.840558122920713E-01, -3.973420336264302E-02, -2.570593517359087E-02, -1.039412844941631E-02,  7.714747319920302E-03,  1.335767090882181E+00, -1.769130556514559E-03,
2459782.500000000, A.D. 2022-Jul-22 00:00:00.0000, -7.614401752480018E-01,  9.871525196847458E-01,  4.731338227466805E-01, -3.763066331474769E-02, -2.731384882168844E-02, -1.143218985365914E-02,  7.701425446717859E-03,  1.333460480040011E+00, -2.788527714937552E-03,
2459783.500000000, A.D. 2022-Jul-23 00:00:00.0000, -7.978392027795388E-01,  9.592037760579397E-01,  4.612249360122069E-01, -3.544699496924594E-02, -2.871504158675202E-02, -1.236789686188951E-02,  7.682411428270303E-03,  1.330168304800248E+00, -3.734081268728064E-03,
2459784.500000000, A.D. 2022-Jul-24 00:00:00.0000, -8.320273371281484E-01,  9.299570515257818E-01,  4.484312908900163E-01, -3.321022123492273E-02, -2.991609858974508E-02, -1.320197765113684E-02,  7.658128737133265E-03,  1.325963887162984E+00, -4.607255776487084E-03,
2459785.500000000, A.D. 2022-Jul-25 00:00:00.0000, -8.639636574394822E-01,  8.996081733766335E-01,  4.348534783117756E-01, -3.094407147398465E-02, -3.092590395891283E-02, -1.393673013434629E-02,  7.628988860106675E-03,  1.320918473859042E+00, -5.410688487154850E-03,
2459786.500000000, A.D. 2022-Jul-26 00:00:00.0000, -8.936293165006222E-01,  8.683432498973602E-01,  4.205891740186733E-01, -2.866897776980945E-02, -3.175489550115786E-02, -1.457562417837864E-02,  7.595385471345941E-03,  1.315100227455455E+00, -6.147865931142398E-03,
2459787.500000000, A.D. 2022-Jul-27 00:00:00.0000, -9.210243049245808E-01,  8.363374401650940E-01,  4.057321457688836E-01, -2.640221779340929E-02, -3.241443822351927E-02, -1.512295214548590E-02,  7.557690354886717E-03,  1.308573520362510E+00, -6.822843105124334E-03,
2459788.500000000, A.D. 2022-Jul-28 00:00:00.0000, -9.461644098533833E-01,  8.037542891554097E-01,  3.903715826789775E-01, -2.415815320301894E-02, -3.291631966025568E-02, -1.558353460845874E-02,  7.516250814636548E-03,  1.301398486387705E+00, -7.440009737041551E-03,
2459789.500000000, A.D. 2022-Jul-29 00:00:00.0000, -9.690784420496542E-01,  7.707455093853609E-01,  3.745916909039431E-01, -2.194852191387733E-02, -3.327235963907756E-02, -1.596248160687942E-02,  7.471388299658312E-03,  1.293630782710956E+00, -8.003903023493804E-03,
2459790.500000000, A.D. 2022-Jul-30 00:00:00.0000, -9.898057685725692E-01,  7.374511009441308E-01,  3.584715017524469E-01, -1.978275250885077E-02, -3.349412123407396E-02, -1.626500564490666E-02,  7.423397986119297E-03,  1.285321517501321E+00, -8.519063034553548E-03,
2459791.500000000, A.D. 2022-Jul-31 00:00:00.0000, -1.008394161183388E+00,  7.039997165210268E-01,  3.420848434187463E-01, -1.766827821789469E-02, -3.359270711040205E-02, -1.649628033069219E-02,  7.372549084797960E-03,  1.276517303160150E+00, -8.989925271921781E-03,
2459792.500000000, A.D. 2022-Aug-01 00:00:00.0000, -1.024897952051218E+00,  6.705091941061518E-01,  3.255004341686178E-01, -1.561083562212620E-02, -3.357862523122804E-02, -1.666133763664328E-02,  7.319085677137587E-03,  1.267260401079281E+00, -9.420744235713169E-03,
2459793.500000000, A.D. 2022-Aug-02 00:00:00.0000, -1.039376476660922E+00,  6.370871955528729E-01,  3.087820618896052E-01, -1.361473930940351E-02, -3.346170910834154E-02, -1.676499677950546E-02,  7.263227918305178E-03,  1.257588929944238E+00, -9.815541962404349E-03,
2459794.500000000, A.D. 2022-Aug-03 00:00:00.0000, -1.051892777401328E+00,  6.038319030582955E-01,  2.919888216532202E-01, -1.168312814505513E-02, -3.325107976300833E-02, -1.681181831689071E-02,  7.205173479071208E-03,  1.247537115387963E+00, -1.017807608477528E-02,
2459795.500000000, A.D. 2022-Aug-04 00:00:00.0000, -1.062512538570951E+00,  5.708327373303531E-01,  2.751753889105502E-01, -9.818181784461852E-03, -3.295513881515535E-02, -1.680607794413885E-02,  7.145099127367324E-03,  1.237135563829050E+00, -1.051182284428587E-02,
